STARLINK-5677
1 55463U 23015Q   26090.38653357  .00019966  00000+0  10741-2 0  9996
2 55463  42.9998 206.7490 0001224 270.0255  90.0451 15.14512272174038
